INTELSAT 26 (IS-26)     
1 24732U 97007A   19088.49165373  .00000006  00000-0  00000+0 0  9990
2 24732   8.4146  45.6743 0005433 347.7552  32.3306  1.00272959 80842
GALAXY 25 (G-25)        
1 24812U 97026A   19088.46068498 -.00000180  00000-0  00000-0 0  9992
2 24812   0.8953  93.8232 0003488 279.9514 245.5302  1.00271334 79931
INTELSAT 5 (IS-5)       
1 24916U 97046A   19088.45178691  .00000076  00000-0  00000+0 0  9997
2 24916   4.8174  67.8961 0003939 308.6587 195.6371  1.00271893 79173
INTELSAT 805 (IS-805)   
1 25371U 98037A   19088.61942600 -.00000048  00000-0  00000-0 0  9992
2 25371   1.4302  91.1182 0003626 294.4965 193.1914  1.00272545 76117
GALAXY 11 (G-11)        
1 26038U 99071A   19088.55631881  .00000102  00000-0  00000-0 0  9991
2 26038   0.1846 106.7911 0004573 296.0754  10.1927  1.00023449 70647
INTELSAT 9 (IS-9)       
1 26451U 00043A   19088.56422674 -.00000023  00000-0  00000-0 0  9993
2 26451   4.8055  68.0986 0003621 314.0147  73.8035  1.00272394 17711
INTELSAT 12 (IS-12)     
1 26590U 00068A   19088.53105010 -.00000004  00000-0  00000-0 0  9992
2 26590   1.8991  88.6311 0002436 271.1424  82.2754  1.00271963 25278
INTELSAT 1R (IS-1R)     
1 26608U 00072A   19088.48660531 -.00000155  00000-0  00000-0 0  9992
2 26608   1.6993  89.2567 0000608 212.1804 217.4299  1.00273240 14885
INTELSAT 10 (IS-10)     
1 26766U 01019A   19088.56056284  .00000108  00000-0  00000-0 0  9999
2 26766   2.9028  81.7773 0000639 334.7973  19.3912  1.00271617 19197
INTELSAT 901 (IS-901)   
1 26824U 01024A   19088.46870374 -.00000231  00000-0  00000-0 0  9991
2 26824   0.8766  93.6220 0003031 288.5528 303.6152  1.00272802 65247
INTELSAT 902 (IS-902)   
1 26900U 01039A   19088.53105010  .00000014  00000-0  00000-0 0  9996
2 26900   0.0166 132.1453 0003095 250.6115  57.0418  1.00271852 64278
DIRECTV 4S              
1 26985U 01052A   19088.56783521 -.00000131  00000-0  00000-0 0  9997
2 26985   0.0183 182.0348 0002717 193.2606 274.5949  1.00272394 24873
INTELSAT 904 (IS-904)   
1 27380U 02007A   19088.48615788  .00000135  00000-0  00000-0 0  9991
2 27380   0.4253  98.2741 0001774 254.6339  43.2888  1.00173148 25328
INTELSAT 903 (IS-903)   
1 27403U 02016A   19088.40119010 -.00000242  00000-0  00000-0 0  9996
2 27403   1.2612  92.1833 0002324 318.2237 249.0306  1.00271900 19232
DIRECTV 5 (TEMPO 1)     
1 27426U 02023A   19088.44525307 -.00000074  00000-0  00000-0 0  9996
2 27426   0.0211 255.7440 0003277 118.7211 222.2475  1.00272715 61897
INTELSAT 905 (IS-905)   
1 27438U 02027A   19088.48168998 -.00000202  00000-0  00000-0 0  9999
2 27438   0.2456 100.5238 0002648 269.8659 325.0960  1.00273317 24934
GALAXY 3C (G-3C)        
1 27445U 02030A   19088.52168876 -.00000169  00000-0  00000-0 0  9993
2 27445   0.0213 276.2028 0001721  53.7408 309.4390  1.00271418 20065
INTELSAT 906 (IS-906)   
1 27513U 02041A   19088.53105010 -.00000004  00000-0  00000-0 0  9991
2 27513   0.0174 211.5761 0002558 181.2304  49.1612  1.00271197 60584
INTELSAT 907 (IS-907)   
1 27683U 03007A   19088.47707605 -.00000221  00000-0  00000-0 0  9994
2 27683   0.0187 208.3758 0002590 175.0662 307.3526  1.00270494 58994
GALAXY 12 (G-12)        
1 27715U 03013B   19088.63888760  .00000041  00000-0  00000-0 0  9996
2 27715   0.4628  96.0704 0002045 293.0702 258.5825  1.00272217 25705
GALAXY 23 (G-23)        
1 27854U 03034A   19088.49520311 -.00000006  00000-0  00000+0 0  9993
2 27854   0.0230 239.9268 0002889 126.0825 237.8683  1.00273879 62106
GALAXY 13 (HORIZONS 1)  
1 27954U 03044A   19088.52390378  .00000030  00000-0  00000-0 0  9994
2 27954   0.0264 131.1049 0001720 245.3979 231.7184  1.00272645 20149
DIRECTV 7S              
1 28238U 04016A   19088.45758942 -.00000017  00000-0  00000+0 0  9992
2 28238   0.0335 282.2856 0003049  98.2883 211.6345  1.00272141 54619
INTELSAT 10-02          
1 28358U 04022A   19088.44632897 -.00000029  00000-0  00000-0 0  9995
2 28358   0.0222 252.2942 0003021 136.4368 317.4955  1.00272607 54218
XM-3 (RHYTHM)           
1 28626U 05008A   19088.46234247 -.00000224  00000-0  00000+0 0  9993
2 28626   0.0419  11.0870 0000193  74.0714 182.7253  1.00270286 51621
SPACEWAY 1              
1 28644U 05015A   19088.45727841  .00000086  00000-0  00000-0 0  9993
2 28644   0.1182  97.6857 0000384 320.1327 154.4404  1.00274753 20152
DIRECTV 8               
1 28659U 05019A   19088.56783291 -.00000134  00000-0  00000-0 0  9991
2 28659   0.0190 208.5467 0002998 169.6434 272.1213  1.00272114 50703
GALAXY 28 (G-28)        
1 28702U 05022A   19088.46687087 -.00000203  00000-0  00000-0 0  9996
2 28702   0.0165 132.0136 0001816 313.6311 179.9909  1.00272575 25676
GALAXY 14 (G-14)        
1 28790U 05030A   19088.58775370  .00000019  00000-0  00000-0 0  9992
2 28790   0.0134 113.8477 0002586 264.6359 254.7767  1.00272094 49874
GALAXY 15 (G-15)        
1 28884U 05041A   19088.63183564  .00000061  00000-0  00000-0 0  9999
2 28884   0.0213 130.1362 0001775 236.6975 274.3504  1.00271410 49310
SPACEWAY 2              
1 28903U 05046B   19088.64200219 -.00000145  00000-0  00000-0 0  9998
2 28903   0.0329  39.1950 0000233 110.2117 169.3813  1.00271644 24895
GALAXY 16 (G-16)        
1 29236U 06023A   19088.64200198 -.00000145  00000-0  00000-0 0  9990
2 29236   0.0150 219.2338 0002555 150.6634 308.9429  1.00272352 46782
DIRECTV 9S              
1 29494U 06043A   19088.56783367 -.00000132  00000-0  00000+0 0  9998
2 29494   0.0137 180.7242 0002955 193.6039 275.6560  1.00272402 45667
XM-4 (BLUES)            
1 29520U 06049A   19088.55892854 -.00000041  00000-0  00000-0 0  9995
2 29520   0.0063  55.3101 0000583  47.7742 169.4862  1.00271315 25048
GALAXY 17 (G-17)        
1 31307U 07016B   19088.45873623 -.00000193  00000-0  00000-0 0  9996
2 31307   0.0255 113.3960 0003439 270.3427 236.9570  1.00273568 43512
DIRECTV 10              
1 31862U 07032A   19088.56687503 -.00000121  00000-0  00000-0 0  9993
2 31862   0.0326 345.2348 0000312 110.3556 192.2946  1.00272853 19189
SPACEWAY 3              
1 32018U 07036A   19088.52168876 -.00000170  00000-0  00000-0 0  9998
2 32018   0.0413  10.0307 0000221  74.7944 194.6435  1.00271145 20134
INTELSAT 11 (IS-11)     
1 32253U 07044B   19088.47071712 -.00000287  00000-0  00000+0 0  9992
2 32253   0.0237 262.0210 0001592 134.2450 276.7696  1.00272832 42080
HORIZONS 2              
1 32388U 07063B   19088.56797788 -.00000201  00000-0  00000-0 0  9997
2 32388   0.0182 222.1182 0003003 162.3682  91.4827  1.00272930 41425
DIRECTV 11              
1 32729U 08013A   19088.64200595 -.00000144  00000-0  00000-0 0  9992
2 32729   0.0429  25.4509 0000033 114.8740 178.3388  1.00271559 19172
GALAXY 18 (G-18)        
1 32951U 08024A   19088.43956208  .00000007  00000-0  00000+0 0  9993
2 32951   0.0130 243.1072 0002962 136.4478 202.2124  1.00271367 39649
INTELSAT 25 (IS-25)     
1 33153U 08034A   19088.40119010 -.00000242  00000-0  00000-0 0  9991
2 33153   0.0111 177.1721 0002077 156.3751 325.8739  1.00272319 39284
GALAXY 19 (G-19)        
1 33376U 08045A   19088.57037536 -.00000157  00000-0  00000-0 0  9995
2 33376   0.0125 229.0800 0003053 147.9472 277.9639  1.00271443 38509
SIRIUS FM-5             
1 35493U 09034A   19088.48105853 -.00000218  00000-0  00000-0 0  9992
2 35493   0.0281 275.8666 0000843 114.1354 243.6003  1.00271483 20276
INTELSAT 14 (IS-14)     
1 36097U 09064A   19088.44896514 -.00000292  00000-0  00000+0 0  9994
2 36097   0.0135 185.9158 0002482 192.7522 284.5065  1.00271939 34253
INTELSAT 15 (IS-15)     
1 36106U 09067A   19088.56806512 -.00000204  00000-0  00000-0 0  9994
2 36106   0.0181 222.5905 0002248 155.0887  98.6281  1.00272625 14872
DIRECTV 12              
1 36131U 09075A   19088.58727458 -.00000121  00000-0  00000-0 0  9992
2 36131   0.0168 283.6826 0000166  88.4543 283.1536  1.00272595 20158
INTELSAT 16 (IS-16)     
1 36397U 10006A   19088.46408719 -.00000263  00000-0  00000-0 0  9992
2 36397   0.0190 212.0863 0001984 173.7090 251.6362  1.00272505 33420
XM-5                    
1 37185U 10053A   19088.46225522 -.00000223  00000-0  00000-0 0  9995
2 37185   0.0204 188.0330 0000339   9.6137  70.1152  1.00267865 31056
INTELSAT 17 (IS-17)     
1 37238U 10065B   19088.56422674 -.00000020  00000-0  00000-0 0  9990
2 37238   0.0152 170.9655 0002490 190.7467  94.0619  1.00272326 26982
INTELSAT NEW DAWN       
1 37392U 11016A   19088.55745316  .00000137  00000-0  00000-0 0  9996
2 37392   0.0201 218.5498 0000707 128.1179  73.4526  1.00273203 26866
INTELSAT 18 (IS-18)     
1 37834U 11056A   19088.59071487  .00000034  00000-0  00000-0 0  9992
2 37834   0.0103 143.0224 0002658 256.0413 180.2683  1.00271415 27502
INTELSAT 22 (IS-22)     
1 38098U 12011A   19088.56245810 -.00000077  00000-0  00000-0 0  9995
2 38098   0.0250 153.7761 0002826 228.2253  79.2486  1.00270260 25404
INTELSAT 19 (IS-19)     
1 38356U 12030A   19088.57468325 -.00000075  00000-0  00000-0 0  9990
2 38356   0.0139 186.9395 0002977 190.1207 182.5029  1.00270459 24029
INTELSAT 20 (IS-20)     
1 38740U 12043A   19088.52549282 -.00000043  00000-0  00000-0 0  9993
2 38740   0.0187 140.6129 0001727  40.2205 263.4607  1.00271600 24307
INTELSAT 21 (IS-21)     
1 38749U 12045A   19088.50540281 -.00000303  00000-0  00000-0 0  9991
2 38749   0.0148 162.7560 0002142 218.4729 289.3152  1.00272828 24102
INTELSAT 23 (IS-23)     
1 38867U 12057A   19088.48736720 -.00000303  00000-0  00000-0 0  9997
2 38867   0.0227 117.4103 0001775 267.5793 284.0219  1.00271401 23569
SIRIUS FM-6             
1 39360U 13058A   19088.58709903 -.00000035  00000-0  00000-0 0  9994
2 39360   0.0184 136.6090 0001157  52.7015  92.5879  1.00271569 19725
INTELSAT 30 (IS-30)     
1 40271U 14062A   19088.52168876 -.00000169  00000-0  00000-0 0  9993
2 40271   0.0204 188.7866 0001923 289.0103 161.5875  1.00271432 16206
INTELSAT 34 (IS-34)     
1 40874U 15039A   19088.46689953 -.00000304  00000-0  00000+0 0  9994
2 40874   0.0029  90.9365 0000480  77.2486 130.9530  1.00271935 13221
INTELSAT 29E (IS-29E)   
1 41308U 16004A   19088.47410394 -.00000301  00000-0  00000+0 0  9999
2 41308   0.0229 230.5274 0001752 151.8300 284.8868  1.00272409 11716
INTELSAT 31 (IS-31)     
1 41581U 16035A   19088.46333987 -.00000170  00000-0  00000+0 0  9991
2 41581   0.0158 223.7159 0002510 337.6488  56.9333  1.00274749 10252
INTELSAT 36 (IS-36)     
1 41747U 16053A   19088.56475015 -.00000043  00000-0  00000-0 0  9995
2 41747   0.0127 168.4823 0000719 213.2719  76.7169  1.00270316  9532
INTELSAT 33E (IS-33E)   
1 41748U 16053B   19088.60041609  .00000031  00000-0  00000-0 0  9995
2 41748   0.0075 160.8386 0001903 226.2948  75.7143  1.00270851  9826
INTELSAT 32E (IS-32E)   
1 41945U 17007B   19088.47062987 -.00000288  00000-0  00000+0 0  9995
2 41945   0.0188 173.0757 0000042 242.2576 257.4737  1.00272195  7803
INTELSAT 35E (IS-35E)   
1 42818U 17041A   19088.47237459 -.00000256  00000-0  00000-0 0  9997
2 42818   0.0222 213.9939 0002045 172.2838 295.8449  1.00272424  6435
INTELSAT 37E (IS-37E)   
1 42950U 17059A   19088.45743747 -.00000159  00000-0  00000+0 0  9994
2 42950   0.0007 192.2759 0002258 202.3471 298.5959  1.00272315  5609
AZERSPACE 2 (IS-38)     
1 43632U 18074A   19088.56003942  .00000118  00000-0  00000-0 0  9993
2 43632   0.0147 146.3729 0002318 302.7011 344.1812  1.00272984  2077
HORIZONS 3E             
1 43633U 18074B   19088.57656355 -.00000049  00000-0  00000-0 0  9991
2 43633   0.0399   9.3558 0000082 107.9019  85.9581  1.00272548  1926
